STARLINK-32276          
1 60944U 24155W   26068.46501656 -.00000623  00000+0 -89223-5 0  9996
2 60944  53.1601 130.9073 0001264  79.1509 280.9634 15.30180708 86355
TEVEL2-9                
1 63237U 25052AD  26068.70229538  .00018694  00000+0  67240-3 0  9992
2 63237  97.4057 324.3929 0007990 124.2475 235.9522 15.28633834 54816
